
STARLINK-2630           
1 48381U 21038AE  24335.23375782  .00040196  00000+0  27029-2 0  9993
2 48381  53.0539 276.6399 0001491  97.7413 262.3746 15.06388443197750
STARLINK-2585           
1 48382U 21038AF  24335.23006615  .00040632  00000+0  27329-2 0  9998
2 48382  53.0547 276.6575 0001158  98.1025 262.0095 15.06374052197755
STARLINK-2598           
1 48385U 21038AJ  24335.15266807  .00023117  00000+0  15670-2 0  9998
2 48385  53.0557 277.0054 0001449 103.6761 256.4390 15.06369853197734
STARLINK-2606           
1 48386U 21038AK  24334.54309943 -.00015742  00000+0 -10398-2 0  9999
2 48386  53.0551 274.7467 0003488  86.0402 274.0986 15.06409064197121
STARLINK-2600           
1 48387U 21038AL  24335.16667824  .01283352  88425-3  24361-2 0  9993
2 48387  53.0449 259.7501 0000709 292.6895  63.6337 16.00297178197975
STARLINK-2594           
1 48388U 21038AM  24334.83429915  .00002625  00000+0  19512-3 0  9997
2 48388  53.0534 273.4384 0002616  77.9651 282.1631 15.06394703197170
STARLINK-2586           
1 48390U 21038AP  24334.81816661  .00013257  00000+0  90743-3 0  9994
2 48390  53.0548 268.5057 0002549  78.5468 281.5807 15.06391394198451
STARLINK-2607           
1 48391U 21038AQ  24335.21256323 -.00006925  00000+0 -44668-3 0  9994
2 48391  53.0561 266.7355 0001514  88.4967 271.6195 15.06383416197874
STARLINK-2605           
1 48392U 21038AR  24334.54539788  .00018579  00000+0  12615-2 0  9991
2 48392  53.0556 269.7303 0001554  78.3279 281.7885 15.06440766198414
STARLINK-2602           
1 48393U 21038AS  24334.80710727  .00019360  00000+0  13144-2 0  9992
2 48393  53.0547 268.5568 0003814  76.9902 283.1512 15.06415817198459
STARLINK-2573           
1 48394U 21038AT  24335.58334491  .01226490  00000+0  39501-1 0  9998
2 48394  53.0497 264.1276 0001293 120.9350 276.6938 15.28918517197950
STARLINK-2574           
1 48395U 21038AU  24334.84773829 -.00004743  00000+0 -29988-3 0  9995
2 48395  53.0551 268.9975 0001580 106.0265 254.0898 15.06381347198451
STARLINK-2575           
1 48396U 21038AV  24335.19782638  .00044644  00000+0  29973-2 0  9998
2 48396  53.0549 266.8024 0003311  95.2178 264.9189 15.06395001197888
STARLINK-2590           
1 48397U 21038AW  24335.26048240  .00040693  00000+0  27368-2 0  9997
2 48397  53.0558 266.5211 0001383  81.5157 278.5989 15.06376769197896
STARLINK-2588           
1 48398U 21038AX  24334.52695748  .00012562  00000+0  85995-3 0  9992
2 48398  53.0545 269.8110 0000645  82.4073 277.6989 15.06434325198416
STARLINK-2587           
1 48399U 21038AY  24334.85503119 -.00001928  00000+0 -11051-3 0  9997
2 48399  53.0556 268.3408 0003457  78.9574 281.1803 15.06399462198454
STARLINK-2576           
1 48400U 21038AZ  24334.85133406  .00016474  00000+0  11225-2 0  9990
2 48400  53.0548 268.3564 0003224  80.6124 279.5229 15.06391203197248
STARLINK-2571           
1 48401U 21038BA  24335.21993577 -.00005872  00000+0 -37574-3 0  9993
2 48401  53.0553 266.7137 0001532  99.3871 260.7291 15.06387746197887
STARLINK-2561           
1 48403U 21038BC  24334.55364010  .00016226  00000+0  10658-2 0  9991
2 48403  53.0535 269.4333 0003496  99.5016 260.6369 15.07761443197203
STARLINK-2593           
1 48404U 21038BD  24334.84027963  .00020039  00000+0  13601-2 0  9995
2 48404  53.0544 268.4052 0001621  91.2915 268.8260 15.06407208197245
STARLINK-2570           
1 48405U 21038BE  24334.83659046  .00031862  00000+0  21469-2 0  9995
2 48405  53.0539 268.4203 0001962  85.0416 275.0797 15.06423476197243
STARLINK-2568           
1 48406U 21038BF  24335.23099845  .00047371  00000+0  31789-2 0  9994
2 48406  53.0553 266.6512 0002445  89.9371 270.1898 15.06386030197896
STARLINK-2595           
1 48407U 21038BG  24335.49204328  .00049855  00000+0  25599-2 0  9998
2 48407  53.0500 260.5811 0004295  83.1839 276.9643 15.16037970197983
STARLINK-2592           
1 48408U 21038BH  24335.22362109 -.00007538  00000+0 -48777-3 0  9990
2 48408  53.0568 266.6854 0002191  95.5698 264.5540 15.06391582197884
STARLINK-2563           
1 48410U 21038BK  24334.72095039 -.00002087  00000+0 -12129-3 0  9998
2 48410  53.0549 223.9361 0002113 122.9295 237.1897 15.06380316197869
STARLINK-2505           
1 48411U 21038BL  24334.93704171  .00015112  00000+0  10318-2 0  9994
2 48411  53.0531 217.9721 0001276  86.0578 274.0557 15.06380515198547
STARLINK-2581           
1 48412U 21038BM  24334.95552799  .00018129  00000+0  12328-2 0  9998
2 48412  53.0460 218.3148 0001577 315.8259  44.2604 15.06399804198541
YAOGAN-30 09A           
1 48423U 21039A   24335.35937100  .00009040  00000+0  75728-3 0  9995
2 48423  34.9966 216.7830 0004424 215.1717 144.8698 14.97730749194819
YAOGAN-30 09B           
1 48424U 21039B   24335.13819399  .00008190  00000+0  68637-3 0  9997
2 48424  34.9948 217.6497 0006618 293.2473  66.7536 14.97725488194785
YAOGAN-30 09C           
1 48425U 21039C   24335.38150951  .00009373  00000+0  78417-3 0  9998
2 48425  34.9944 215.8410 0003708 245.8377 114.1942 14.97779726194839
TIANQI-12               
1 48426U 21039D   24335.32158911  .00015872  00000+0  11635-2 0  9996
2 48426  35.0000 189.8936 0006275 345.3011  14.7514 15.02723348195085
STARLINK-2461           
1 48428U 21040A   24335.22867729  .00002089  00000+0  15906-3 0  9995
2 48428  53.0528 111.6632 0001386  90.7843 269.3305 15.06402716197838
STARLINK-2749           
1 48429U 21040B   24335.50001157  .01188422  00000+0  37391-1 0  9999
2 48429  53.0561  79.5783 0001471  68.2770 219.7263 15.29773093198308
STARLINK-2700           
1 48431U 21040D   24334.91212819  .00006581  00000+0  46036-3 0  9997
2 48431  53.0504  78.0814 0002151  88.4498 271.6737 15.06392316197441
STARLINK-2680           
1 48432U 21040E   24334.56157473  .00002294  00000+0  17292-3 0  9992
2 48432  53.0499  75.0494 0002345  95.4465 264.6791 15.06390391197008
STARLINK-2699           
1 48433U 21040F   24335.30382244  .00002154  00000+0  16336-3 0  9995
2 48433  53.0541  76.6034 0000099 239.0016 121.0963 15.06407279197658
STARLINK-2692           
1 48434U 21040G   24334.80393328  .00008928  00000+0  61755-3 0  9995
2 48434  53.0533  84.0785 0001170 112.5746 247.5366 15.06396306197358
STARLINK-2633           
1 48435U 21040H   24335.34109978  .00027335  00000+0  18458-2 0  9996
2 48435  53.0530  91.1673 0001599  67.7971 292.3188 15.06422359198121
STARLINK-2639           
1 48436U 21040J   24334.86608036  .00000603  00000+0  59388-4 0  9990
2 48436  53.0533 108.2889 0001598 105.4814 254.6352 15.06386987196565
STARLINK-2642           
1 48437U 21040K   24334.38598339  .00002171  00000+0  16458-3 0  9994
2 48437  53.0493 120.4488 0001563  95.9969 264.1198 15.06398079196354
STARLINK-2640           
1 48438U 21040L   24335.35265974  .00007030  00000+0  49022-3 0  9991
2 48438  53.0538 106.3761 0001371  82.0841 278.0303 15.06412957197912
STARLINK-2583           
1 48439U 21040M   24334.85871606  .00004218  00000+0  30185-3 0  9996
2 48439  53.0503 108.3238 0001478  85.1196 274.9962 15.06406713196560
STARLINK-2682           
1 48440U 21040N   24335.38578867  .00004968  00000+0  35205-3 0  9990
2 48440  53.0513 105.9564 0001427  92.9073 267.2080 15.06409895197091
STARLINK-2702           
1 48441U 21040P   24335.38210015  .00010366  00000+0  71351-3 0  9990
2 48441  53.0524 105.9709 0001618 111.8847 248.2314 15.06414044197920
STARLINK-2644           
1 48442U 21040Q   24334.71493611 -.00018183  00000+0 -12052-2 0  9991
2 48442  53.0522 108.9661 0001535  91.5693 268.5472 15.06391246197827
STARLINK-2663           
1 48443U 21040R   24334.71128201  .00005584  00000+0  39345-3 0  9996
2 48443  53.0519 108.9858 0001266  91.5856 268.5278 15.06400277196541
STARLINK-2645           
1 48444U 21040S   24334.11045174  .00004743  00000+0  33706-3 0  9999
2 48444  53.0516 111.6828 0001161  77.7810 282.3309 15.06401176196455
STARLINK-2634           
1 48445U 21040T   24334.63754612  .00005940  00000+0  41752-3 0  9991
2 48445  53.0516 109.3178 0000927  54.3701 305.7374 15.06382581196536
STARLINK-2655           
1 48449U 21040X   24334.75918516 -.00003350  00000+0 -20614-3 0  9992
2 48449  53.0504 108.7683 0002090  75.2318 284.8903 15.06389360196559
STARLINK-2660           
1 48450U 21040Y   24335.35536117  .00004709  00000+0  33474-3 0  9999
2 48450  53.0532 106.1203 0001498  82.4493 277.6666 15.06405416197926
STARLINK-2703           
1 48452U 21040AA  24334.75182355  .00008768  00000+0  60680-3 0  9993
2 48452  53.0529 108.7717 0001459  88.9554 271.1602 15.06400866196559
STARLINK-2620           
1 48453U 21040AB  24334.81447993 -.00017501  00000+0 -11591-2 0  9996
2 48453  53.0592 108.5288 0000533 104.3369 255.7679 15.06395233197846
STARLINK-2654           
1 48454U 21040AC  24334.74444064 -.00001239  00000+0 -64308-4 0  9992
2 48454  53.0505 108.8403 0001501  88.5322 271.5839 15.06394435196555
STARLINK-2497           
1 48455U 21040AD  24334.67441620  .00005511  00000+0  38855-3 0  9992
2 48455  53.0569 109.1489 0000808  63.1233 296.9839 15.06401692196536
STARLINK-2698           
1 48458U 21040AG  24335.41298212  .00000891  00000+0  78706-4 0  9991
2 48458  53.0541 110.9206 0001367  95.8886 264.2258 15.06403479197127
STARLINK-2579           
1 48459U 21040AH  24335.40564611  .00002416  00000+0  18102-3 0  9998
2 48459  53.0531 111.2251 0001331  79.8085 280.3054 15.06406309197189
STARLINK-2582           
1 48460U 21040AJ  24334.69423127  .00003648  00000+0  26369-3 0  9998
2 48460  53.0502 114.0601 0001525 101.0696 259.0465 15.06392773196985
STARLINK-2693           
1 48461U 21040AK  24334.81803004  .00051933  00000+0  17065-2 0  9991
2 48461  53.0480 108.3411 0000768   6.0495 354.0514 15.31072677196577
